      2.10          N: GNSS NAV DATA                        RINEX VERSION / TYPE
fic2rin                                 12/29/2020 00:17:20 PGM / RUN BY / DATE
                                                            END OF HEADER
19 20 12 29  0  0  0.0-5.918042734265e-05 5.002220859751e-12 0.000000000000e+00
    9.200000000000e+01 1.806250000000e+01 4.282678390745e-09-2.748218343034e+00
    9.872019290924e-07 8.984857588075e-03-1.154839992523e-07 5.153611108780e+03
    1.728000000000e+05 1.005828380585e-07-1.758495102002e+00 1.434236764908e-07
    9.812158954891e-01 3.913125000000e+02 1.764059862437e+00-8.096408676491e-09
    3.392998474863e-11 1.000000000000e+00 2.138000000000e+03 0.000000000000e+00
    2.400000000000e+00 0.000000000000e+00-1.536682248116e-08 9.200000000000e+01
    1.656000000000e+05 4.000000000000e+00
24 20 12 29  0  0  0.0 4.470348358154e-06-5.684341886081e-13 0.000000000000e+00
    4.800000000000e+01-8.218750000000e+00 5.245575642138e-09-8.021237365190e-01
   -2.942979335785e-07 1.076682715211e-02 8.000060915947e-06 5.153619075775e+03
    1.728000000000e+05 1.639127731323e-07 2.259754886901e+00 1.974403858185e-07
    9.353683749673e-01 2.120625000000e+02 7.158254280652e-01-8.297131323109e-09
   -5.146642949766e-10 1.000000000000e+00 2.138000000000e+03 0.000000000000e+00
    2.400000000000e+00 0.000000000000e+00 2.793967723846e-09 4.800000000000e+01
    1.656000000000e+05 4.000000000000e+00
12 20 12 29  0  0  0.0 2.053380012512e-05-5.229594535194e-12 0.000000000000e+00
    6.800000000000e+01 1.304062500000e+02 4.059811964607e-09-2.449966893926e+00
    6.776303052902e-06 8.139571640640e-03 7.949769496918e-06 5.153586700439e+03
    1.728000000000e+05 1.359730958939e-07-2.839249191474e+00 5.587935447693e-09
    9.759270926064e-01 2.352187500000e+02 1.169412456368e+00-7.648890035543e-09
    1.617924535908e-10 1.000000000000e+00 2.138000000000e+03 0.000000000000e+00
    2.400000000000e+00 0.000000000000e+00-1.257285475731e-08 6.800000000000e+01
    1.656000000000e+05 4.000000000000e+00
32 20 12 29  0  0  0.0 1.107808202505e-05 2.387423592154e-12 0.000000000000e+00
    9.400000000000e+01 8.687500000000e+00 4.968778398136e-09 1.805996103238e+00
    4.991888999939e-07 4.366421257146e-03 5.153939127922e-06 5.153609300613e+03
    1.728000000000e+05-1.285225152969e-07 1.271399420146e+00 2.421438694000e-08
    9.566022344371e-01 2.746250000000e+02-2.462565775566e+00-8.156768333570e-09
    2.514390448740e-10 1.000000000000e+00 2.138000000000e+03 0.000000000000e+00
    2.400000000000e+00 0.000000000000e+00 4.656612873077e-10 9.400000000000e+01
    1.656000000000e+05 4.000000000000e+00
26 20 12 29  0  0  0.0 2.158014103770e-05 5.798028723802e-12 0.000000000000e+00
    9.600000000000e+01 1.399062500000e+02 4.654122434309e-09 2.928662737164e+00
    7.260590791702e-06 5.522772786207e-03 9.343028068542e-06 5.153740018845e+03
    1.728000000000e+05-1.043081283569e-07-2.950096151826e+00-4.284083843231e-08
    9.442579634486e-01 1.911875000000e+02 2.355210449569e-01-7.945688112660e-09
    2.785830326729e-11 1.000000000000e+00 2.138000000000e+03 0.000000000000e+00
    2.400000000000e+00 0.000000000000e+00 6.984919309616e-09 9.600000000000e+01
    1.656000000000e+05 4.000000000000e+00
21 20 12 29  0  0  0.0 8.187582716346e-05 3.410605131648e-12 0.000000000000e+00
    7.100000000000e+01-1.486562500000e+02 4.466614623856e-09 1.313758596416e+00
   -8.409842848778e-06 2.410907682497e-02 3.887340426445e-06 5.153749168396e+03
    1.728000000000e+05 3.427267074585e-07-8.862878625441e-01-4.991888999939e-07
    9.556570357515e-01 3.024687500000e+02-1.222822900556e+00-8.240343243372e-09
   -3.618007847406e-10 1.000000000000e+00 2.138000000000e+03 0.000000000000e+00
    2.400000000000e+00 0.000000000000e+00-1.024454832077e-08 7.100000000000e+01
    1.656000000000e+05 4.000000000000e+00
13 20 12 29  0  0  0.0 7.995031774044e-05 4.092726157978e-12 0.000000000000e+00
    8.300000000000e+01 2.250000000000e+00 4.774484590733e-09 3.962229514535e-01
    2.421438694000e-08 4.896008176729e-03 5.112960934639e-06 5.153674390793e+03
    1.728000000000e+05-1.676380634308e-08 1.408360035826e+00 2.607703208923e-08
    9.674482695780e-01 2.850312500000e+02 1.045161460839e+00-8.125338452961e-09
    7.178870457341e-11 1.000000000000e+00 2.138000000000e+03 0.000000000000e+00
    2.400000000000e+00 0.000000000000e+00-1.164153218269e-08 8.300000000000e+01
    1.656000000000e+05 4.000000000000e+00
20 20 12 29  0  0  0.0 5.254102870822e-04-2.273736754432e-13 0.000000000000e+00
    7.000000000000e+01-5.240625000000e+01 4.579119310128e-09-1.698256816836e+00
   -2.788379788399e-06 5.876184673980e-03 1.157075166702e-05 5.153671808243e+03
    1.728000000000e+05-1.173466444016e-07 9.101628947950e-02 5.587935447693e-09
    9.368295916728e-01 1.450000000000e+02 2.806246865572e+00-7.896757503075e-09
    5.539516457381e-10 1.000000000000e+00 2.138000000000e+03 0.000000000000e+00
    2.400000000000e+00 0.000000000000e+00-8.381903171539e-09 7.000000000000e+01
    1.656000000000e+05 4.000000000000e+00
28 20 12 29  0  0  0.0 6.370926275849e-04-4.888534022029e-12 0.000000000000e+00
    8.100000000000e+01 1.191250000000e+02 4.020167456111e-09 1.790224212264e+00
    6.038695573807e-06 1.817513094284e-02 8.273869752884e-06 5.153670621872e+03
    1.728000000000e+05 3.408640623093e-07-2.816844846860e+00-2.142041921616e-07
    9.751246440041e-01 2.215000000000e+02-1.361113842735e+00-7.542814188487e-09
    6.678849629467e-11 1.000000000000e+00 2.138000000000e+03 0.000000000000e+00
    3.400000000000e+00 0.000000000000e+00-1.117587089539e-08 8.100000000000e+01
    1.656000000000e+05 4.000000000000e+00
17 20 12 29  0  0  0.0 3.731627948582e-04 4.888534022029e-12 0.000000000000e+00
    6.800000000000e+01 3.068750000000e+01 4.378396663510e-09 9.502141934467e-01
    1.356005668640e-06 1.364426536020e-02 9.033828973770e-07 5.153517745972e+03
    1.728000000000e+05-2.048909664154e-07-1.803853915722e+00-8.940696716309e-08
    9.828370179182e-01 3.777500000000e+02-1.595756794521e+00-8.425708107420e-09
   -3.535861568541e-11 1.000000000000e+00 2.138000000000e+03 0.000000000000e+00
    2.400000000000e+00 0.000000000000e+00-1.117587089539e-08 6.800000000000e+01
    1.656000000000e+05 4.000000000000e+00
23 20 12 29  0  0  0.0 1.132525503635e-04 2.273736754432e-12 0.000000000000e+00
    1.800000000000e+02-3.803125000000e+01 4.064812172886e-09-1.273874630723e+00
   -1.968815922737e-06 1.094631035812e-03 1.125410199165e-05 5.153641437531e+03
    1.728000000000e+05-5.401670932770e-08 2.062359690245e-01 8.568167686462e-08
    9.630047861119e-01 1.647500000000e+02 2.270354613451e+00-7.619245943605e-09
    5.807384758028e-10 1.000000000000e+00 2.138000000000e+03 0.000000000000e+00
    3.400000000000e+00 0.000000000000e+00-8.381903171539e-09 1.800000000000e+02
    1.656000000000e+05 4.000000000000e+00
14 20 12 29  0  0  0.0 7.508043199778e-05 8.185452315956e-12 0.000000000000e+00
    6.100000000000e+01 1.242812500000e+02 4.377325190307e-09-1.292348399727e+00
    6.515532732010e-06 2.203296171501e-04 8.773058652878e-06 5.153742605209e+03
    1.728000000000e+05-3.725290298462e-09-2.864026462358e+00-1.303851604462e-08
    9.594572638976e-01 2.105937500000e+02 1.891395622620e+00-7.895328872139e-09
    7.000291590243e-11 1.000000000000e+00 2.138000000000e+03 0.000000000000e+00
    2.400000000000e+00 0.000000000000e+00-2.328306436539e-09 5.730000000000e+02
    1.656000000000e+05 4.000000000000e+00
18 20 12 29  0  0  0.0 3.368221223354e-04 3.296918293927e-12 0.000000000000e+00
    1.590000000000e+02-1.403750000000e+02 4.148029924953e-09-9.755869231913e-01
   -7.353723049164e-06 1.183239975944e-03 6.247311830521e-06 5.153702215195e+03
    1.728000000000e+05-2.048909664154e-08-7.926063791686e-01-5.587935447693e-08
    9.664823340286e-01 2.625625000000e+02 3.013184333074e+00-7.943188008521e-09
   -2.992981812563e-10 1.000000000000e+00 2.138000000000e+03 0.000000000000e+00
    2.400000000000e+00 0.000000000000e+00-8.381903171539e-09 9.270000000000e+02
    1.656000000000e+05 4.000000000000e+00
11 20 12 29  0  0  0.0-6.838841363788e-05 1.057287590811e-11 0.000000000000e+00
    8.500000000000e+01-9.071875000000e+01 5.790598344521e-09-1.706403994873e+00
   -4.470348358154e-06 1.543825666886e-02 5.643814802170e-07 5.153729539871e+03
    1.728000000000e+05-3.315508365631e-07-1.295354700768e+00 2.924352884293e-07
    9.138075562327e-01 3.430937500000e+02 2.076929091816e+00-8.992160273855e-09
   -2.978695503195e-10 1.000000000000e+00 2.138000000000e+03 0.000000000000e+00
    2.400000000000e+00 6.300000000000e+01-1.257285475731e-08 8.500000000000e+01
    1.656000000000e+05 4.000000000000e+00
 7 20 12 29  0  0  0.0 3.678724169731e-07 1.489297574153e-11 0.000000000000e+00
    1.060000000000e+02-3.500000000000e+00 4.693409785071e-09-1.778698694100e+00
   -3.185123205185e-07 1.430101064034e-02 8.698552846909e-06 5.153614593506e+03
    1.728000000000e+05 1.676380634308e-07 2.335510228564e+00-1.266598701477e-07
    9.520939627180e-01 2.019062500000e+02-2.357928571841e+00-7.774966715715e-09
   -4.171602335410e-10 1.000000000000e+00 2.138000000000e+03 0.000000000000e+00
    4.850000000000e+00 0.000000000000e+00-1.117587089539e-08 1.060000000000e+02
    1.656000000000e+05 4.000000000000e+00
 7 20 12 28 23 59 44.0 3.660097718239e-07 1.489297574153e-11 0.000000000000e+00
    1.000000000000e+00-3.500000000000e+00 4.693766942805e-09-1.781032433184e+00
   -3.185123205185e-07 1.430101250298e-02 8.698552846909e-06 5.153614593506e+03
    1.727840000000e+05 1.676380634308e-07 2.335510367541e+00-1.247972249985e-07
    9.520939627180e-01 2.019062500000e+02-2.357928630358e+00-7.774966715715e-09
   -4.171602335410e-10 1.000000000000e+00 2.138000000000e+03 0.000000000000e+00
    2.400000000000e+00 0.000000000000e+00-1.117587089539e-08 1.000000000000e+00
    1.677000000000e+05 4.000000000000e+00
